BIOMASS                 
1 63772U 25090A   26155.01067110  .00000608  00000+0  11566-3 0  9991
2 63772  98.0750 342.5230 0001533  55.3477 304.7872 14.67536850 58759
GOSAT-GW (IBUKI GW)     
1 64694U 25141A   26155.16748008  .00000841  00000+0  15660-3 0  9998
2 64694  98.0569  92.6964 0001420  82.8384 277.2982 14.67551595 49934
IONOSFERA-M 3           
1 64876U 25155A   26155.15350494  .00000065  00000+0  49448-4 0  9992
2 64876  98.6019 117.3872 0000211 195.6908 164.4263 14.21484116 44553
IONOSFERA-M 4           
1 64877U 25155B   26155.18836694  .00000066  00000+0  49814-4 0  9995
2 64877  98.6025 117.3387 0000616 108.5458 251.5787 14.21486247 44550
MICROCARB               
1 64899U 25156A   26154.62550242  .00000608  00000+0  10393-3 0  9991
2 64899  97.9831 232.0047 0015345 319.3110  40.6950 14.72310853 45972
CO3D 3                  
1 64900U 25156B   26155.15471963  .00003518  00000+0  16557-3 0  9996
2 64900  97.4327 234.0350 0000923 140.3370 219.7933 15.20197205 47559
CO3D 4                  
1 64901U 25156C   26155.15488731  .00005587  00000+0  26104-3 0  9995
2 64901  97.4328 234.0350 0001056  38.7650 321.3661 15.20199224 47551
CO3D 2                  
1 64902U 25156D   26155.12152844  .00005018  00000+0  23477-3 0  9995
2 64902  97.4327 233.9014 0001310 119.5731 240.5635 15.20203783 47545
CO3D 1                  
1 64903U 25156E   26155.12167823  .00005181  00000+0  24234-3 0  9992
2 64903  97.4327 233.9015 0001100 119.5705 240.5640 15.20195331 47540
PRSC-S1                 
1 65055U 25164A   26154.93770247  .00005313  00000+0  36643-3 0  9992
2 65055  41.1316   2.4261 0007638 267.4450  92.5490 15.06328784 46436
SENTINEL-6B             
1 66514U 25264A   26155.04714976 -.00000057  00000+0  16888-4 0  9995
2 66514  66.0384 162.4707 0008061 269.3196  90.6895 12.80929602 25484
CAS500-3                
1 66655U 25274F   26154.29821958  .00001529  00000+0  17126-3 0  9996
2 66655  97.7446  82.6656 0005900 147.8006 212.3573 14.88285530 28085
CSG-3                   
1 67304U 26001A   26155.03446894  .00000368  00000+0  52752-4 0  9997
2 67304  97.8886 338.8270 0001306  93.4711 266.6651 14.82159385 22512
PRSC-E03                
1 68835U 26092A   26155.19797781  .00002200  00000+0  15293-3 0  9993
2 68835  37.9993 166.2724 0005361 277.8697  82.1456 15.06606016  5991
CAS500-2                
1 69013U 26100AK  26154.26636628  .00006342  00000+0  29353-3 0  9994
2 69013  97.4080  52.3641 0011661  77.8085 282.4456 15.20411306  4693
