OBJECT_NAME,OBJECT_ID,EPOCH,MEAN_MOTION,ECCENTRICITY,INCLINATION,RA_OF_ASC_NODE,ARG_OF_PERICENTER,MEAN_ANOMALY,EPHEMERIS_TYPE,CLASSIFICATION_TYPE,NORAD_CAT_ID,ELEMENT_SET_NO,REV_AT_EPOCH,BSTAR,MEAN_MOTION_DOT,MEAN_MOTION_DDOT
BIOMASS,2025-090A,2026-06-04T00:15:21.983040,14.67536850,.0001533,98.0750,342.5230,55.3477,304.7872,0,U,63772,999,5875,.11566E-3,.608E-5,0
GOSAT-GW (IBUKI GW),2025-141A,2026-06-04T04:01:10.278912,14.67551595,.000142,98.0569,92.6964,82.8384,277.2982,0,U,64694,999,4993,.1566E-3,.841E-5,0
IONOSFERA-M 3,2025-155A,2026-06-04T03:41:02.826816,14.21484116,.0000211,98.6019,117.3872,195.6908,164.4263,0,U,64876,999,4455,.49448E-4,.65E-6,0
IONOSFERA-M 4,2025-155B,2026-06-04T04:31:14.903616,14.21486247,.0000616,98.6025,117.3387,108.5458,251.5787,0,U,64877,999,4455,.49814E-4,.66E-6,0
MICROCARB,2025-156A,2026-06-03T15:00:43.409088,14.72310853,.0015345,97.9831,232.0047,319.3110,40.6950,0,U,64899,999,4597,.10393E-3,.608E-5,0
CO3D 3,2025-156B,2026-06-04T03:42:47.776032,15.20197205,.0000923,97.4327,234.0350,140.3370,219.7933,0,U,64900,999,4755,.16557E-3,.3518E-4,0
CO3D 4,2025-156C,2026-06-04T03:43:02.263584,15.20199224,.0001056,97.4328,234.0350,38.7650,321.3661,0,U,64901,999,4755,.26104E-3,.5587E-4,0
CO3D 2,2025-156D,2026-06-04T02:55:00.057216,15.20203783,.000131,97.4327,233.9014,119.5731,240.5635,0,U,64902,999,4754,.23477E-3,.5018E-4,0
CO3D 1,2025-156E,2026-06-04T02:55:12.999072,15.20195331,.00011,97.4327,233.9015,119.5705,240.5640,0,U,64903,999,4754,.24234E-3,.5181E-4,0
PRSC-S1,2025-164A,2026-06-03T22:30:17.493408,15.06328784,.0007638,41.1316,2.4261,267.4450,92.5490,0,U,65055,999,4643,.36643E-3,.5313E-4,0
SENTINEL-6B,2025-264A,2026-06-04T01:07:53.739264,12.80929602,.0008061,66.0384,162.4707,269.3196,90.6895,0,U,66514,999,2548,.16888E-4,-.57E-6,0
CAS500-3,2025-274F,2026-06-03T07:09:26.171712,14.88285530,.00059004,97.7446,82.6656,147.8006,212.3573,0,U,66655,999,2808,.17126146E-3,.1529E-4,0
CSG-3,2026-001A,2026-06-04T00:49:38.116416,14.82159385,.0001306,97.8886,338.8270,93.4711,266.6651,0,U,67304,999,2251,.52752E-4,.368E-5,0
PRSC-E03,2026-092A,2026-06-04T04:45:05.282784,15.06606016,.0005361,37.9993,166.2724,277.8697,82.1456,0,U,68835,999,599,.15293E-3,.22E-4,0
CAS500-2,2026-100AK,2026-06-03T06:23:34.046592,15.20411306,.00116619,97.4080,52.3641,77.8085,282.4456,0,U,69013,999,469,.29353194E-3,.6342E-4,0
